CCSDS_OMM_VERS = 2.0
CREATION_DATE  = 
ORIGINATOR     = 

OBJECT_NAME    = CORAL
OBJECT_ID      = 1998-067YA
CENTER_NAME    = EARTH
REF_FRAME      = TEME
TIME_SYSTEM    = UTC
MEAN_ELEMENT_THEORY = SGP/SGP4

EPOCH          = 2026-03-26T00:24:02.134368
MEAN_MOTION    = 15.57054021
ECCENTRICITY   = .0012456
INCLINATION    = 51.6305
RA_OF_ASC_NODE = 349.9356
ARG_OF_PERICENTER = 234.0650
MEAN_ANOMALY   = 125.9187

EPHEMERIS_TYPE = 0
CLASSIFICATION_TYPE = U
NORAD_CAT_ID   = 67684
ELEMENT_SET_NO = 999
REV_AT_EPOCH   = 733
BSTAR          = .10528E-2
MEAN_MOTION_DOT = .78154E-3
MEAN_MOTION_DDOT = 0

CCSDS_OMM_VERS = 2.0
CREATION_DATE  = 
ORIGINATOR     = 

OBJECT_NAME    = GXIBA-1
OBJECT_ID      = 1998-067YB
CENTER_NAME    = EARTH
REF_FRAME      = TEME
TIME_SYSTEM    = UTC
MEAN_ELEMENT_THEORY = SGP/SGP4

EPOCH          = 2026-03-26T03:11:03.495840
MEAN_MOTION    = 15.53694243
ECCENTRICITY   = .0011842
INCLINATION    = 51.6320
RA_OF_ASC_NODE = 349.9594
ARG_OF_PERICENTER = 242.3548
MEAN_ANOMALY   = 117.6241

EPHEMERIS_TYPE = 0
CLASSIFICATION_TYPE = U
NORAD_CAT_ID   = 67685
ELEMENT_SET_NO = 999
REV_AT_EPOCH   = 734
BSTAR          = .67483E-3
MEAN_MOTION_DOT = .43855E-3
MEAN_MOTION_DDOT = 0

CCSDS_OMM_VERS = 2.0
CREATION_DATE  = 
ORIGINATOR     = 

OBJECT_NAME    = UITMSAT-2
OBJECT_ID      = 1998-067YC
CENTER_NAME    = EARTH
REF_FRAME      = TEME
TIME_SYSTEM    = UTC
MEAN_ELEMENT_THEORY = SGP/SGP4

EPOCH          = 2026-03-25T22:14:36.271680
MEAN_MOTION    = 15.54556307
ECCENTRICITY   = .0008859
INCLINATION    = 51.6335
RA_OF_ASC_NODE = 350.8380
ARG_OF_PERICENTER = 213.2499
MEAN_ANOMALY   = 146.7936

EPHEMERIS_TYPE = 0
CLASSIFICATION_TYPE = U
NORAD_CAT_ID   = 67686
ELEMENT_SET_NO = 999
REV_AT_EPOCH   = 731
BSTAR          = .67773E-3
MEAN_MOTION_DOT = .45416E-3
MEAN_MOTION_DDOT = 0

CCSDS_OMM_VERS = 2.0
CREATION_DATE  = 
ORIGINATOR     = 

OBJECT_NAME    = HMU-SAT2
OBJECT_ID      = 1998-067YD
CENTER_NAME    = EARTH
REF_FRAME      = TEME
TIME_SYSTEM    = UTC
MEAN_ELEMENT_THEORY = SGP/SGP4

EPOCH          = 2026-03-26T00:12:15.223392
MEAN_MOTION    = 15.53428839
ECCENTRICITY   = .0008474
INCLINATION    = 51.6326
RA_OF_ASC_NODE = 350.6331
ARG_OF_PERICENTER = 215.7508
MEAN_ANOMALY   = 144.2916

EPHEMERIS_TYPE = 0
CLASSIFICATION_TYPE = U
NORAD_CAT_ID   = 67687
ELEMENT_SET_NO = 999
REV_AT_EPOCH   = 724
BSTAR          = .63411E-3
MEAN_MOTION_DOT = .40708E-3
MEAN_MOTION_DDOT = 0

CCSDS_OMM_VERS = 2.0
CREATION_DATE  = 
ORIGINATOR     = 

OBJECT_NAME    = LEOPARD
OBJECT_ID      = 1998-067YE
CENTER_NAME    = EARTH
REF_FRAME      = TEME
TIME_SYSTEM    = UTC
MEAN_ELEMENT_THEORY = SGP/SGP4

EPOCH          = 2026-03-25T22:23:05.135712
MEAN_MOTION    = 15.54154330
ECCENTRICITY   = .0008632
INCLINATION    = 51.6330
RA_OF_ASC_NODE = 350.8765
ARG_OF_PERICENTER = 213.0025
MEAN_ANOMALY   = 147.0428

EPHEMERIS_TYPE = 0
CLASSIFICATION_TYPE = U
NORAD_CAT_ID   = 67688
ELEMENT_SET_NO = 999
REV_AT_EPOCH   = 723
BSTAR          = .63246E-3
MEAN_MOTION_DOT = .41704E-3
MEAN_MOTION_DDOT = 0

CCSDS_OMM_VERS = 2.0
CREATION_DATE  = 
ORIGINATOR     = 

OBJECT_NAME    = CREW DRAGON 12
OBJECT_ID      = 2026-031A
CENTER_NAME    = EARTH
REF_FRAME      = TEME
TIME_SYSTEM    = UTC
MEAN_ELEMENT_THEORY = SGP/SGP4

EPOCH          = 2026-03-26T03:56:25.627200
MEAN_MOTION    = 15.48550860
ECCENTRICITY   = .0006236
INCLINATION    = 51.6341
RA_OF_ASC_NODE = 350.9181
ARG_OF_PERICENTER = 233.8579
MEAN_ANOMALY   = 126.1832

EPHEMERIS_TYPE = 0
CLASSIFICATION_TYPE = U
NORAD_CAT_ID   = 67796
ELEMENT_SET_NO = 999
REV_AT_EPOCH   = 55882
BSTAR          = .25101E-3
MEAN_MOTION_DOT = .13194E-3
MEAN_MOTION_DDOT = 0

CCSDS_OMM_VERS = 2.0
CREATION_DATE  = 
ORIGINATOR     = 

OBJECT_NAME    = PROGRESS-MS 33
OBJECT_ID      = 2026-058A
CENTER_NAME    = EARTH
REF_FRAME      = TEME
TIME_SYSTEM    = UTC
MEAN_ELEMENT_THEORY = SGP/SGP4

EPOCH          = 2026-03-26T03:56:25.627200
MEAN_MOTION    = 15.48550860
ECCENTRICITY   = .0006236
INCLINATION    = 51.6341
RA_OF_ASC_NODE = 350.9181
ARG_OF_PERICENTER = 233.8579
MEAN_ANOMALY   = 126.1832

EPHEMERIS_TYPE = 0
CLASSIFICATION_TYPE = U
NORAD_CAT_ID   = 68319
ELEMENT_SET_NO = 999
REV_AT_EPOCH   = 33
BSTAR          = .25101E-3
MEAN_MOTION_DOT = .13194E-3
MEAN_MOTION_DDOT = 0

